OBJECT_NAME,OBJECT_ID,EPOCH,MEAN_MOTION,ECCENTRICITY,INCLINATION,RA_OF_ASC_NODE,ARG_OF_PERICENTER,MEAN_ANOMALY,EPHEMERIS_TYPE,CLASSIFICATION_TYPE,NORAD_CAT_ID,ELEMENT_SET_NO,REV_AT_EPOCH,BSTAR,MEAN_MOTION_DOT,MEAN_MOTION_DDOT
STARLINK-5145,2022-125AW,2026-06-15T03:59:21.689664,15.08832438,.0001049,53.1616,126.0912,87.0838,273.0273,0,U,54008,999,20432,.71805226E-4,.855E-5,0
STARLINK-5099,2022-125AX,2026-06-15T05:33:23.906880,15.08831098,.00013823,53.1607,135.7610,88.5332,271.5818,0,U,54009,999,20419,.32662809E-4,.232E-5,0
STARLINK-5127,2022-125AY,2026-06-15T03:48:43.756128,15.08832983,.00013523,53.1610,126.0552,82.7236,277.3909,0,U,54010,999,20432,.7706901E-5,-.165E-5,0
STARLINK-5124,2022-125AZ,2026-06-15T03:32:55.846176,15.08835654,.00014176,53.1626,126.6811,90.9084,269.2070,0,U,54011,999,20431,.42741802E-4,.392E-5,0
STARLINK-5126,2022-125BA,2026-06-15T08:00:01.999872,15.14288683,.00021589,53.1607,125.5206,43.7476,53.0435,0,U,54012,999,581,.43647215E-2,.81438E-3,0
STARLINK-5098,2022-125BB,2026-06-15T04:41:48.130080,15.08838401,.00009671,53.1605,126.2720,79.9332,280.1769,0,U,54013,999,20432,.65087796E-4,.748E-5,0
STARLINK-5055,2022-125BD,2026-06-15T04:36:29.179296,15.08833830,.00013917,53.2177,126.3299,83.2144,276.9007,0,U,54015,999,20432,.6217491E-5,-.189E-5,0
CENTISPACE-1 S5,2022-126A,2026-06-15T05:44:04.790112,14.63011860,.0014546,54.9978,220.7568,68.8604,291.3943,0,U,54020,999,19675,.12843405E-3,.474E-5,0
CENTISPACE-1 S6,2022-126B,2026-06-15T07:11:17.637216,14.62289248,.00163913,54.9982,222.3708,69.0159,291.2586,0,U,54021,999,19672,.95474369E-4,.297E-5,0
OTB-3-GAZELLE,2022-127A,2026-06-15T06:09:24.325920,14.42673800,.00128386,98.3943,157.9902,189.0817,171.0143,0,U,54023,999,19408,.47777653E-4,.116E-5,0
GALAXY 33 (G-33),2022-128A,2026-06-15T05:35:05.172864,1.00271300,.00015881,0.0135,355.5054,91.4484,127.3422,0,U,54026,999,1372,0,.83E-6,0
GALAXY 34 (G-34),2022-128B,2026-06-15T06:43:37.951968,1.00266748,.0001509,0.0119,5.6058,96.9422,132.9203,0,U,54027,999,1389,0,.63E-6,0
ASO-S,2022-129A,2026-06-15T06:07:53.375232,14.52060908,.00157572,98.2747,171.3636,98.0872,262.2112,0,U,54029,999,19514,.54055348E-4,.174E-5,0
COSMOS 2559 [GLONASS-K],2022-130A,2026-06-14T13:58:26.958144,2.13101528,.00125096,64.2727,314.6603,177.7310,182.2594,0,U,54031,999,2863,0,-.55E-6,0
ANGOSAT 2,2022-131A,2026-06-15T06:19:35.724288,1.00270834,.00006738,0.0233,71.4616,42.4046,267.5823,0,U,54033,999,1345,0,.139E-5,0
HJ-2E,2022-132A,2026-06-15T07:30:43.674336,15.22290172,.00207785,97.3791,170.7230,21.6135,338.5974,0,U,54035,999,20413,.28024424E-3,.6421E-4,0
YAOGAN-36 02A,2022-133A,2026-06-15T06:44:08.926368,15.22847474,.00256136,35.0052,131.7663,187.8774,172.1541,0,U,54042,999,20446,.24592381E-3,.5919E-4,0
YAOGAN-36 02B,2022-133B,2026-06-15T06:37:04.807776,15.32460751,.00022575,34.9946,122.4767,63.1633,296.9315,0,U,54043,999,20455,.24501335E-3,.785E-4,0
YAOGAN-36 02C,2022-133D,2026-06-15T04:24:54.682272,15.48700298,.00084354,34.9895,86.7234,220.9576,139.0513,0,U,54045,999,20491,.74464331E-3,.41337E-3,0
EUTELSAT HOTBIRD 13F,2022-134A,2026-06-15T00:43:38.608608,1.00274259,.0002176,0.0506,293.1506,63.7609,290.3351,0,U,54048,999,1335,0,.92E-6,0
STARLINK-5195,2022-136A,2026-06-14T13:29:25.531584,15.08023684,.00011271,53.2117,269.5778,84.1294,275.9827,0,U,54051,999,20146,.18883018E-4,.8E-7,0
STARLINK-5189,2022-136B,2026-06-14T21:40:28.566624,15.08835072,.0001135,53.1590,227.4418,84.8998,275.2122,0,U,54052,999,20208,.35293E-4,.274E-5,0
STARLINK-5176,2022-136C,2026-06-15T00:19:30.794304,15.08827054,.00014393,53.1603,267.3403,79.9448,280.1706,0,U,54053,999,20153,.1028728E-3,.1349E-4,0
STARLINK-5163,2022-136D,2026-06-15T08:00:01.999872,15.09668468,.00012697,53.1879,265.8526,91.8355,256.3982,0,U,54054,999,581,-.22851797E-3,-.4009E-4,0
STARLINK-5158,2022-136E,2026-06-15T00:14:12.856128,15.08833954,.00010834,53.1593,267.3179,85.6922,274.4193,0,U,54055,999,20153,.46661836E-4,.455E-5,0
STARLINK-5226,2022-136F,2026-06-14T13:22:18.242976,15.08837157,.00011111,53.1594,268.7709,89.3283,270.7836,0,U,54056,999,20147,.43115769E-4,.398E-5,0
STARLINK-5167,2022-136H,2026-06-14T23:52:59.894688,15.08827619,.00011934,53.1602,267.2272,91.5317,268.5811,0,U,54058,999,20153,.25136281E-4,.112E-5,0
STARLINK-5173,2022-136J,2026-06-15T03:09:03.500928,15.08828561,.00011373,53.1603,266.6520,89.8737,270.2385,0,U,54059,999,20155,-.46494798E-4,-.1028E-4,0
STARLINK-5169,2022-136K,2026-06-14T21:23:13.492032,15.08831616,.0001132,53.1599,237.3399,81.6960,278.4160,0,U,54060,999,20194,.22573E-5,-.252E-5,0
STARLINK-5209,2022-136L,2026-06-14T11:48:55.187424,15.08829888,.00011297,53.1590,234.0868,87.0327,273.0794,0,U,54061,999,20195,.25242738E-4,.114E-5,0
STARLINK-5170,2022-136M,2026-06-14T12:39:59.375520,15.08828650,.00012073,53.1603,269.2860,91.3623,268.7507,0,U,54062,999,20146,.52344808E-4,.545E-5,0
STARLINK-5172,2022-136P,2026-06-14T20:56:09.946176,15.08830312,.0001172,53.1597,222.9489,85.5242,274.5883,0,U,54064,999,20214,.24822E-4,.107E-5,0
STARLINK-5187,2022-136Q,2026-06-14T23:31:46.150464,15.08830793,.00012405,53.1618,267.1336,82.6955,277.4178,0,U,54065,999,20153,.43341471E-4,.402E-5,0
STARLINK-5151,2022-136R,2026-06-14T14:22:37.888896,15.08013732,.00011686,53.2103,269.1017,83.9754,276.1371,0,U,54066,999,20147,-.921558E-5,-.429E-5,0
STARLINK-5174,2022-136S,2026-06-14T23:21:09.228672,15.08832581,.00011396,53.1610,267.0885,91.0040,269.1082,0,U,54067,999,20153,.29622088E-4,.183E-5,0
STARLINK-5222,2022-136T,2026-06-14T23:26:27.673152,15.08832058,.00011561,53.1610,267.1094,82.0163,278.0960,0,U,54068,999,20153,.41562839E-4,.374E-5,0
STARLINK-5181,2022-136V,2026-06-14T13:38:13.060608,15.08839599,.0001128,53.1609,268.8295,88.9540,271.1581,0,U,54070,999,20147,-.19445E-4,-.597E-5,0
STARLINK-5168,2022-136W,2026-06-14T13:32:55.038624,15.08833829,.0001269,53.1605,268.8068,87.1595,272.9542,0,U,54071,999,20147,.56155E-4,.606E-5,0
STARLINK-5146,2022-136Y,2026-06-14T23:03:15.027840,15.08829869,.0001282,53.1608,262.0305,90.6450,269.4689,0,U,54073,999,20160,-.8336279E-5,-.421E-5,0
STARLINK-5192,2022-136Z,2026-06-14T13:27:36.287424,15.08840817,.00012503,53.1607,268.7822,89.4342,270.6792,0,U,54074,999,20147,.4428763E-4,.417E-5,0
STARLINK-5212,2022-136AA,2026-06-15T08:00:01.999872,15.11710139,.00021242,53.1600,260.2999,87.8212,164.5698,0,U,54075,999,581,.16140691E-2,.27618E-3,0
STARLINK-5201,2022-136AB,2026-06-15T00:20:53.933568,15.08834053,.00013133,53.1607,267.3318,86.4859,273.6283,0,U,54076,999,20153,.44258962E-4,.416E-5,0
STARLINK-5171,2022-136AC,2026-06-14T21:42:39.062592,15.08844532,.0001326,53.1599,243.2586,84.8840,275.2303,0,U,54077,999,20186,-.26E-3,-.4424E-4,0
STARLINK-5175,2022-136AE,2026-06-14T22:45:27.802944,15.08831784,.00011757,53.1605,257.6488,81.3720,278.7404,0,U,54079,999,20166,-.31927336E-4,-.796E-5,0
STARLINK-5160,2022-136AF,2026-06-15T10:40:56.244288,16.19320644,.0004523,53.2065,233.6789,345.8357,14.2555,0,U,54080,999,20204,.55912E-3,.1052028E-1,.1179E-4
STARLINK-5210,2022-136AH,2026-06-14T13:07:51.686400,15.08826270,.00022336,53.1597,259.4145,80.3675,279.7569,0,U,54082,999,20160,.12576622E-3,.1713E-4,0
STARLINK-5178,2022-136AJ,2026-06-14T12:51:55.285056,15.08830271,.00012175,53.1603,259.3459,82.2333,277.8797,0,U,54083,999,20160,-.6200144E-4,-.1274E-4,0
STARLINK-5183,2022-136AK,2026-06-14T13:02:33.185760,15.08814648,.00012596,53.1612,259.3904,83.1063,277.0071,0,U,54084,999,20160,.39540059E-3,.6006E-4,0
STARLINK-5166,2022-136AL,2026-06-14T12:48:00.520704,15.08825912,.00013307,53.1607,259.3279,78.8975,281.2166,0,U,54085,999,20160,-.12333231E-3,-.225E-4,0
STARLINK-5211,2022-136AM,2026-06-14T22:23:35.016288,15.08833314,.0001221,53.1598,242.5977,87.3361,272.7770,0,U,54086,999,20187,.33339E-4,.243E-5,0
STARLINK-5184,2022-136AN,2026-06-14T23:01:15.951360,15.08827505,.00012672,53.1595,257.0186,88.4105,271.7031,0,U,54087,999,20167,-.6572082E-5,-.393E-5,0
STARLINK-5153,2022-136AP,2026-06-14T12:57:13.739904,15.08829729,.0001055,53.1598,259.3686,85.2546,274.8565,0,U,54088,999,20160,.70676501E-4,.837E-5,0
STARLINK-5143,2022-136AQ,2026-06-14T14:00:46.899360,15.08834262,.0001153,53.1597,258.9381,87.2545,272.8579,0,U,54089,999,20161,.42992E-4,.396E-5,0
STARLINK-5177,2022-136AR,2026-06-14T23:38:25.263168,15.08822940,.00011132,53.1593,257.1710,102.5943,257.5173,0,U,54090,999,20167,-.336896E-6,-.293E-5,0
STARLINK-5221,2022-136AS,2026-06-14T22:55:57.394560,15.08828880,.00011913,53.1601,256.9901,87.5286,272.5842,0,U,54091,999,20167,.26053571E-4,.127E-5,0
STARLINK-5190,2022-136AT,2026-06-14T22:57:56.640384,15.83111855,.0001308,53.1725,51.4390,135.6637,224.4492,0,U,54092,999,20455,.51359E-3,.11327E-2,0
STARLINK-5213,2022-136AU,2026-06-14T23:17:11.149152,15.08822131,.00009822,53.1578,257.0776,84.6100,275.5004,0,U,54093,999,20167,-.70782467E-4,-.1414E-4,0
STARLINK-5193,2022-136AW,2026-06-14T23:06:34.212672,15.08828205,.00011201,53.1594,257.0322,87.4801,272.6319,0,U,54095,999,20167,.41906945E-4,.379E-5,0
STARLINK-5188,2022-136AX,2026-06-14T23:22:29.733600,15.08827018,.0001137,53.1599,257.1013,85.4603,274.6518,0,U,54096,999,20167,.8118574E-5,-.159E-5,0
STARLINK-5197,2022-136AY,2026-06-14T21:58:23.877696,15.08836436,.0001054,53.1590,232.5031,82.4221,277.6890,0,U,54097,999,20201,.12374E-3,.1682E-4,0
STARLINK-5217,2022-136AZ,2026-06-14T23:02:45.964608,15.08826556,.00010796,53.1596,257.7071,84.1391,275.9723,0,U,54098,999,20166,.19860476E-4,.28E-6,0
STARLINK-5198,2022-136BA,2026-06-14T22:50:39.886656,15.08826947,.00009088,53.1597,256.9627,48.0636,312.0433,0,U,54099,999,20167,-.37199256E-4,-.88E-5,0
STARLINK-5185,2022-136BB,2026-06-14T23:11:52.378944,15.08830757,.00012074,53.1599,257.0559,90.2987,269.8142,0,U,54100,999,20167,.491167E-4,.494E-5,0
STARLINK-5204,2022-136BC,2026-06-14T21:37:12.844704,15.08826961,.0001282,53.1604,242.4017,87.5357,272.5781,0,U,54101,999,20187,-.17328E-4,-.564E-5,0
STARLINK-5179,2022-136BD,2026-06-14T12:46:38.237664,15.08832995,.00012192,53.1599,259.3108,99.6447,260.4682,0,U,54102,999,20160,.4400409E-4,.412E-5,0
